SOMP2                   
1 42700U 98067LH  17146.24099712  .00009256  00000-0  14175-3 0  9999
2 42700  51.6394 147.6262 0005235 254.8246 174.5572 15.55111160  1533
HAVELSAT                
1 42701U 98067LJ  17146.31642381  .00009020  00000-0  13835-3 0  9995
2 42701  51.6401 147.2493 0005571 239.9072 251.8913 15.55105705  1524
COLUMBIA                
1 42702U 98067LK  17146.31563003  .00016324  00000-0  24342-3 0  9999
2 42702  51.6411 147.2500 0005131 240.7681 247.5549 15.55218209  1456
SGSAT                   
1 42703U 98067LL  17146.31648630  .00015526  00000-0  23290-3 0  9994
2 42703  51.6417 147.2633 0003480 186.5620 302.5634 15.55105035  1443
CXBN-2                  
1 42704U 98067LM  17146.24175686  .00008911  00000-0  13756-3 0  9999
2 42704  51.6384 147.6415 0001662 172.4383 255.1716 15.54949199  1449
ICECUBE                 
1 42705U 98067LN  17146.31775897  .00006660  00000-0  10477-3 0  9994
2 42705  51.6384 147.2619 0002171 190.6296 301.9283 15.54914256  1516
PHOENIX                 
1 42706U 98067LP  17146.30862670  .00009420  00000-0  14424-3 0  9993
2 42706  51.6413 147.2969 0001591 208.7387 236.7375 15.55095288  1440
X-CUBESAT               
1 42707U 98067LQ  17146.31691506  .00009066  00000-0  13920-3 0  9999
2 42707  51.6390 147.2573 0001089 164.9070 326.2930 15.55073688  1431
OBEE50-LTU-OC           
1 42708U 98067LR  17146.30898514  .00009426  00000-0  14453-3 0  9999
2 42708  51.6402 147.2976 0000831 204.2355 241.8411 15.55055890  1397
ALTAIR PATHFINDER       
1 42711U 98067LS  17146.37379853  .00006534  00000-0  10373-3 0  9994
2 42711  51.6403 147.0035 0006083 173.9211 263.5556 15.54692302  1119
SHARC                   
1 42712U 98067LT  17146.31849130  .00006045  00000-0  96115-4 0  9995
2 42712  51.6405 147.2712 0002760 167.4457 323.8931 15.54810269  1340
ZA-AEROSAT              
1 42713U 98067LU  17146.31006494  .00008579  00000-0  13260-3 0  9997
2 42713  51.6397 147.3145 0004307 234.4992 210.7788 15.54970279  1106
LINK                    
1 42714U 98067LV  17146.31040925  .00009925  00000-0  15285-3 0  9990
2 42714  51.6383 147.3129 0002259 162.7260 282.6338 15.54867338  1211
CSUNSAT 1               
1 42715U 98067LW  17146.31874753  .00007941  00000-0  12421-3 0  9990
2 42715  51.6397 147.2772 0005252 165.2190 323.7957 15.54759661  1107
UPSAT                   
1 42716U 98067LX  17146.31796131  .00010815  00000-0  16507-3 0  9997
2 42716  51.6405 147.2701 0003436 245.0525 245.4715 15.55003598  1239
SPACECUBE               
1 42717U 98067LY  17146.31848382  .00008939  00000-0  13805-3 0  9996
2 42717  51.6359 147.2556 0000740  28.2884 103.8507 15.54930526   470
HOOPOE                  
1 42718U 98067LZ  17146.30953725  .00010024  00000-0  15368-3 0  9998
2 42718  51.6386 147.3131 0003987 247.9870 194.4663 15.54975590   471
UNSW-ECO                
1 42721U 98067MA  17147.78817580  .00013254  00000-0  20255-3 0  9992
2 42721  51.6405 139.9851 0006886 230.8135 188.4807 15.54727540   405
NJUST-1                 
1 42722U 98067MB  17147.92148701  .00007207  00000-0  11361-3 0  9990
2 42722  51.6414 139.3221 0006872 229.7454 216.0735 15.54703014   427
CHALLENGER              
1 42723U 98067MC  17147.85445690  .00010759  00000-0  16605-3 0  9992
2 42723  51.6416 139.6520 0006601 230.2531 199.9857 15.54692606   392
DUTHSAT                 
1 42724U 98067MD  17147.85487749  .00000778  00000-0  18721-4 0  9996
2 42724  51.6404 139.6496 0004334 248.1657 183.4933 15.54611714   327
LILACSAT-1              
1 42725U 98067ME  17147.78840056 -.00019239  00000-0 -27906-3 0  9991
2 42725  51.6398 139.9843 0004680 241.0028 178.3366 15.54598175   314
NSIGHT-1                
1 42726U 98067MF  17147.78863245  .00011353  00000-0  17506-3 0  9999
2 42726  51.6316 140.0166 0003319 253.2629 167.3791 15.54664050   312
1998-067MG              
1 42727U 98067MG  17147.47535012  .00002724  00000-0  47638-4 0  9996
2 42727  51.6377 141.5578 0007892 187.7476 276.8273 15.54583136   220
QBITO                   
1 42728U 98067MH  17147.78825763 -.00051576  00000-0 -76437-3 0  9995
2 42728  51.6394 139.9889 0004382 211.6868 206.8834 15.54561413   117
AALTO-2                 
1 42729U 98067MJ  17147.78826245  .00015409  00000-0  23452-3 0  9994
2 42729  51.6413 140.0079 0004924 242.3263 176.4795 15.54706366   123
SUSAT                   
1 42730U 98067MK  17147.09082120 -.00068108  00000-0 -10111-2 0  9999
2 42730  51.6329 143.4818 0008430 241.1595 231.4905 15.54597373    19
I-INSPIRE II            
1 42731U 98067ML  17147.34576753 -.00011271  00000-0 -15960-3 0  9995
2 42731  51.6371 142.2034 0006845 179.4633 279.5553 15.54700115    98
POLYITAN-2-SAU          
1 42732U 98067MM  17147.09380551 -.00069638  00000-0 -10321-2 0  9992
2 42732  51.6335 143.4618 0007791 180.1026 307.7509 15.54658908    59
SNUSAT-1                
1 42733U 98067MN  17147.34570779 -.00006853  00000-0 -94259-4 0  9998
2 42733  51.6361 142.2027 0007211 177.7203 280.8033 15.54666713    96
EXALTA-1                
1 42734U 98067MP  17147.09340113 -.00145675  00000-0 -21867-2 0  9997
2 42734  51.6366 143.4509 0008732 199.9661 285.0478 15.54657974    03
AOXIANG-1               
1 42735U 98067MQ  17147.98790652 -.00119872  00000-0 -18047-2 0  9999
2 42735  51.6293 138.9808 0008259 236.3625 217.7083 15.54477136  1560
BEEAGLESAT              
1 42736U 98067MR  17147.85497368  .00032452  00000-0  48363-3 0  9995
2 42736  51.6335 139.6845 0011717 215.4857 214.3911 15.54720398   232
ATLANTIS                
1 42737U 98067MS  17147.41981275 -.00092324  00000-0 -13758-2 0  9998
2 42737  51.6316 141.8184 0009569 222.2593 290.3083 15.54613284    57
